{"type": "FeatureCollection", "features": [{"type": "Feature", "properties": {"norad_id": 25590, "name": "COSMOS 2361", "group": "musson", "lat": 39.5036575965297, "lon": -19.698863764889047, "alt_km": 1007.087677073986, "timestamp": "2025-12-25T19:00:39.620502+00:00", "meta": {"OBJECT_NAME": "COSMOS 2361", "OBJECT_ID": "1998-076A", "EPOCH": "2025-12-25T01:40:40.592928", "MEAN_MOTION": 13.73218824, "ECCENTRICITY": 0.00303178, "INCLINATION": 82.9345, "RA_OF_ASC_NODE": 334.9664, "ARG_OF_PERICENTER": 229.9139, "MEAN_ANOMALY": 201.6823, "EPHEMERIS_TYPE": 0, "CLASSIFICATION_TYPE": "U", "NORAD_CAT_ID": 25590, "ELEMENT_SET_NO": 999, "REV_AT_EPOCH": 35280, "BSTAR": 4.9101775e-05, "MEAN_MOTION_DOT": 6e-07, "MEAN_MOTION_DDOT": 0}, "tle": {"line1": "1 25590U 98076A   25359.06991427  .00000060  00000+0  49102-4 0  9998", "line2": "2 25590  82.9345 334.9664 0030317 229.9139 201.6823 13.73218824352807"}}, "geometry": {"type": "Point", "coordinates": [-19.698863764889047, 39.5036575965297]}}, {"type": "Feature", "properties": {"norad_id": 26818, "name": "COSMOS 2378", "group": "musson", "lat": 23.87617493686538, "lon": 166.8959403325911, "alt_km": 960.2531981813281, "timestamp": "2025-12-25T19:00:39.620523+00:00", "meta": {"OBJECT_NAME": "COSMOS 2378", "OBJECT_ID": "2001-023A", "EPOCH": "2025-12-25T02:52:27.994944", "MEAN_MOTION": 13.7414296, "ECCENTRICITY": 0.00331845, "INCLINATION": 82.9272, "RA_OF_ASC_NODE": 350.5445, "ARG_OF_PERICENTER": 170.2004, "MEAN_ANOMALY": 261.4901, "EPHEMERIS_TYPE": 0, "CLASSIFICATION_TYPE": "U", "NORAD_CAT_ID": 26818, "ELEMENT_SET_NO": 999, "REV_AT_EPOCH": 23093, "BSTAR": 3.3956905e-05, "MEAN_MOTION_DOT": 4.7e-07, "MEAN_MOTION_DDOT": 0}, "tle": {"line1": "1 26818U 01023A   25359.11976846  .00000047  00000+0  33957-4 0  9998", "line2": "2 26818  82.9272 350.5445 0033184 170.2004 261.4901 13.74142960230933"}}, "geometry": {"type": "Point", "coordinates": [166.8959403325911, 23.87617493686538]}}, {"type": "Feature", "properties": {"norad_id": 27436, "name": "COSMOS 2389", "group": "musson", "lat": 49.97685235254258, "lon": -54.20507719097013, "alt_km": 945.2208568133829, "timestamp": "2025-12-25T19:00:39.620536+00:00", "meta": {"OBJECT_NAME": "COSMOS 2389", "OBJECT_ID": "2002-026A", "EPOCH": "2025-12-24T22:06:49.893984", "MEAN_MOTION": 13.75155957, "ECCENTRICITY": 0.0047094, "INCLINATION": 82.9513, "RA_OF_ASC_NODE": 297.9672, "ARG_OF_PERICENTER": 27.4918, "MEAN_ANOMALY": 34.7494, "EPHEMERIS_TYPE": 0, "CLASSIFICATION_TYPE": "U", "NORAD_CAT_ID": 27436, "ELEMENT_SET_NO": 999, "REV_AT_EPOCH": 18316, "BSTAR": 6.8126e-05, "MEAN_MOTION_DOT": 8.1e-07, "MEAN_MOTION_DDOT": 0}, "tle": {"line1": "1 27436U 02026A   25358.92141081  .00000081  00000+0  68126-4 0  9996", "line2": "2 27436  82.9513 297.9672 0047094  27.4918  34.7494 13.75155957183167"}}, "geometry": {"type": "Point", "coordinates": [-54.20507719097013, 49.97685235254258]}}, {"type": "Feature", "properties": {"norad_id": 27818, "name": "COSMOS 2398", "group": "musson", "lat": -52.719051293534385, "lon": 92.43769954188183, "alt_km": 1020.0181984406645, "timestamp": "2025-12-25T19:00:39.620548+00:00", "meta": {"OBJECT_NAME": "COSMOS 2398", "OBJECT_ID": "2003-023A", "EPOCH": "2025-12-25T06:11:43.168128", "MEAN_MOTION": 13.72387095, "ECCENTRICITY": 0.00326943, "INCLINATION": 82.9483, "RA_OF_ASC_NODE": 263.4738, "ARG_OF_PERICENTER": 78.461, "MEAN_ANOMALY": 37.8825, "EPHEMERIS_TYPE": 0, "CLASSIFICATION_TYPE": "U", "NORAD_CAT_ID": 27818, "ELEMENT_SET_NO": 999, "REV_AT_EPOCH": 12988, "BSTAR": 6.9939635e-05, "MEAN_MOTION_DOT": 8e-07, "MEAN_MOTION_DDOT": 0}, "tle": {"line1": "1 27818U 03023A   25359.25813852  .00000080  00000+0  69940-4 0  9991", "line2": "2 27818  82.9483 263.4738 0032694  78.4610  37.8825 13.72387095129881"}}, "geometry": {"type": "Point", "coordinates": [92.43769954188183, -52.719051293534385]}}, {"type": "Feature", "properties": {"norad_id": 28380, "name": "COSMOS 2407", "group": "musson", "lat": -71.44414247046073, "lon": 44.83007109563889, "alt_km": 1001.5558751136687, "timestamp": "2025-12-25T19:00:39.620559+00:00", "meta": {"OBJECT_NAME": "COSMOS 2407", "OBJECT_ID": "2004-028A", "EPOCH": "2025-12-25T02:40:13.473120", "MEAN_MOTION": 13.76315024, "ECCENTRICITY": 0.00397398, "INCLINATION": 82.9593, "RA_OF_ASC_NODE": 203.7326, "ARG_OF_PERICENTER": 21.0232, "MEAN_ANOMALY": 100.5296, "EPHEMERIS_TYPE": 0, "CLASSIFICATION_TYPE": "U", "NORAD_CAT_ID": 28380, "ELEMENT_SET_NO": 999, "REV_AT_EPOCH": 7593, "BSTAR": 3.7652356e-05, "MEAN_MOTION_DOT": 5.2e-07, "MEAN_MOTION_DDOT": 0}, "tle": {"line1": "1 28380U 04028A   25359.11126705  .00000052  00000+0  37652-4 0  9995", "line2": "2 28380  82.9593 203.7326 0039739  21.0232 100.5296 13.76315024 75932"}}, "geometry": {"type": "Point", "coordinates": [44.83007109563889, -71.44414247046073]}}, {"type": "Feature", "properties": {"norad_id": 28521, "name": "COSMOS 2414", "group": "musson", "lat": -19.92427373853919, "lon": 172.21837935936554, "alt_km": 957.6922386038996, "timestamp": "2025-12-25T19:00:39.620570+00:00", "meta": {"OBJECT_NAME": "COSMOS 2414", "OBJECT_ID": "2005-002A", "EPOCH": "2025-12-25T00:04:31.766016", "MEAN_MOTION": 13.87904522, "ECCENTRICITY": 0.00414146, "INCLINATION": 82.9488, "RA_OF_ASC_NODE": 175.3864, "ARG_OF_PERICENTER": 105.6791, "MEAN_ANOMALY": 254.8947, "EPHEMERIS_TYPE": 0, "CLASSIFICATION_TYPE": "U", "NORAD_CAT_ID": 28521, "ELEMENT_SET_NO": 999, "REV_AT_EPOCH": 5965, "BSTAR": 4.4725903e-05, "MEAN_MOTION_DOT": 7e-07, "MEAN_MOTION_DDOT": 0}, "tle": {"line1": "1 28521U 05002A   25359.00314544  .00000070  00000+0  44726-4 0  9993", "line2": "2 28521  82.9488 175.3864 0041414 105.6791 254.8947 13.87904522 59651"}}, "geometry": {"type": "Point", "coordinates": [172.21837935936554, -19.92427373853919]}}, {"type": "Feature", "properties": {"norad_id": 32052, "name": "COSMOS 2429", "group": "musson", "lat": -55.008630239206425, "lon": 163.82364174386703, "alt_km": 1004.8864099013945, "timestamp": "2025-12-25T19:00:39.620581+00:00", "meta": {"OBJECT_NAME": "COSMOS 2429", "OBJECT_ID": "2007-038A", "EPOCH": "2025-12-25T00:24:17.509248", "MEAN_MOTION": 13.75150565, "ECCENTRICITY": 0.00385111, "INCLINATION": 82.9808, "RA_OF_ASC_NODE": 334.2578, "ARG_OF_PERICENTER": 4.0546, "MEAN_ANOMALY": 356.0915, "EPHEMERIS_TYPE": 0, "CLASSIFICATION_TYPE": "U", "NORAD_CAT_ID": 32052, "ELEMENT_SET_NO": 999, "REV_AT_EPOCH": 91771, "BSTAR": 4.6345808e-05, "MEAN_MOTION_DOT": 6e-07, "MEAN_MOTION_DDOT": 0}, "tle": {"line1": "1 32052U 07038A   25359.01686932  .00000060  00000+0  46346-4 0  9991", "line2": "2 32052  82.9808 334.2578 0038511   4.0546 356.0915 13.75150565917710"}}, "geometry": {"type": "Point", "coordinates": [163.82364174386703, -55.008630239206425]}}, {"type": "Feature", "properties": {"norad_id": 35635, "name": "COSMOS 2454", "group": "musson", "lat": 53.43653827843729, "lon": -30.846105370652047, "alt_km": 923.177132087606, "timestamp": "2025-12-25T19:00:39.620591+00:00", "meta": {"OBJECT_NAME": "COSMOS 2454", "OBJECT_ID": "2009-039A", "EPOCH": "2025-12-24T23:57:14.333184", "MEAN_MOTION": 13.89930197, "ECCENTRICITY": 0.00200053, "INCLINATION": 82.9558, "RA_OF_ASC_NODE": 159.3524, "ARG_OF_PERICENTER": 40.6876, "MEAN_ANOMALY": 74.0739, "EPHEMERIS_TYPE": 0, "CLASSIFICATION_TYPE": "U", "NORAD_CAT_ID": 35635, "ELEMENT_SET_NO": 999, "REV_AT_EPOCH": 83320, "BSTAR": 5.6949105e-05, "MEAN_MOTION_DOT": 8.6e-07, "MEAN_MOTION_DDOT": 0}, "tle": {"line1": "1 35635U 09039A   25358.99808256  .00000086  00000+0  56949-4 0  9993", "line2": "2 35635  82.9558 159.3524 0020005  40.6876  74.0739 13.89930197833204"}}, "geometry": {"type": "Point", "coordinates": [-30.846105370652047, 53.43653827843729]}}, {"type": "Feature", "properties": {"norad_id": 36519, "name": "COSMOS 2463", "group": "musson", "lat": 28.04967328542097, "lon": 20.89543068038391, "alt_km": 1011.3440445880778, "timestamp": "2025-12-25T19:00:39.620602+00:00", "meta": {"OBJECT_NAME": "COSMOS 2463", "OBJECT_ID": "2010-017A", "EPOCH": "2025-12-24T23:55:31.767744", "MEAN_MOTION": 13.716502, "ECCENTRICITY": 0.00348043, "INCLINATION": 82.9603, "RA_OF_ASC_NODE": 17.7047, "ARG_OF_PERICENTER": 252.7721, "MEAN_ANOMALY": 170.7477, "EPHEMERIS_TYPE": 0, "CLASSIFICATION_TYPE": "U", "NORAD_CAT_ID": 36519, "ELEMENT_SET_NO": 999, "REV_AT_EPOCH": 78405, "BSTAR": 3.3999158e-05, "MEAN_MOTION_DOT": 4.6e-07, "MEAN_MOTION_DDOT": 0}, "tle": {"line1": "1 36519U 10017A   25358.99689546  .00000046  00000+0  33999-4 0  9998", "line2": "2 36519  82.9603  17.7047 0034804 252.7721 170.7477 13.71650200784057"}}, "geometry": {"type": "Point", "coordinates": [20.89543068038391, 28.04967328542097]}}]}